[{"OBJECT_NAME":"SVOM","OBJECT_ID":"2024-116B","EPOCH":"2026-03-09T23:40:42.296160","MEAN_MOTION":14.83280449,"ECCENTRICITY":0.00053838,"INCLINATION":28.9973,"RA_OF_ASC_NODE":24.3307,"ARG_OF_PERICENTER":105.8209,"MEAN_ANOMALY":254.2978,"EPHEMERIS_TYPE":0,"CLASSIFICATION_TYPE":"U","NORAD_CAT_ID":60089,"ELEMENT_SET_NO":999,"REV_AT_EPOCH":9285,"BSTAR":0.00025701068,"MEAN_MOTION_DOT":2.275e-5,"MEAN_MOTION_DDOT":0},{"OBJECT_NAME":"KSLV-II R\/B","OBJECT_ID":"2025-274P","EPOCH":"2026-03-09T17:44:44.185056","MEAN_MOTION":14.98166503,"ECCENTRICITY":0.00605567,"INCLINATION":97.7452,"RA_OF_ASC_NODE":0.3618,"ARG_OF_PERICENTER":19.961,"MEAN_ANOMALY":340.3962,"EPHEMERIS_TYPE":0,"CLASSIFICATION_TYPE":"U","NORAD_CAT_ID":66663,"ELEMENT_SET_NO":999,"REV_AT_EPOCH":1543,"BSTAR":0.00059831331,"MEAN_MOTION_DOT":7.309e-5,"MEAN_MOTION_DDOT":0}]
